{
  "norad_id": 47263,
  "name": "ONEWEB-0117",
  "history": [
    {
      "epoch": "2026-05-02T09:41:04.331040Z",
      "apogee_km": 1215.063761533237,
      "perigee_km": 1212.3701717458734,
      "latitude_deg": 6.756940856112567e-06,
      "longitude_deg": -5.840603842687642,
      "height_km": 1216.3825599275247,
      "semi_major_axis_km": 7591.8539666395545,
      "eccentricity": 0.0001774,
      "inclination_deg": 87.8987,
      "raan_deg": 359.7495,
      "arg_perigee_deg": 80.5023,
      "mean_anomaly_deg": 279.6306,
      "mean_motion_rev_day": 13.1244464
    },
    {
      "epoch": "2026-05-03T16:47:21.187392Z",
      "apogee_km": 1215.0860388862366,
      "perigee_km": 1212.3453800581183,
      "latitude_deg": -5.8914998208298394e-05,
      "longitude_deg": -113.9454683856457,
      "height_km": 1216.3833617331893,
      "semi_major_axis_km": 7591.852709472178,
      "eccentricity": 0.0001805,
      "inclination_deg": 87.8985,
      "raan_deg": 359.4923,
      "arg_perigee_deg": 80.7561,
      "mean_anomaly_deg": 279.3771,
      "mean_motion_rev_day": 13.12444966
    },
    {
      "epoch": "2026-05-04T09:15:23.035392Z",
      "apogee_km": 1215.0736432775366,
      "perigee_km": 1212.3584929462577,
      "latitude_deg": 2.5126196059443616e-05,
      "longitude_deg": -1.7656506506401857,
      "height_km": 1216.388371512807,
      "semi_major_axis_km": 7591.853068111897,
      "eccentricity": 0.00017882,
      "inclination_deg": 87.8984,
      "raan_deg": 359.3561,
      "arg_perigee_deg": 80.8667,
      "mean_anomaly_deg": 279.2664,
      "mean_motion_rev_day": 13.12444873
    },
    {
      "epoch": "2026-05-05T14:31:53.084064Z",
      "apogee_km": 1215.0663765983745,
      "perigee_km": 1212.37278588335,
      "latitude_deg": -7.514106680439259e-06,
      "longitude_deg": -82.33524125682949,
      "height_km": 1216.3908396958143,
      "semi_major_axis_km": 7591.8565812408615,
      "eccentricity": 0.0001774,
      "inclination_deg": 87.8983,
      "raan_deg": 359.114,
      "arg_perigee_deg": 80.7467,
      "mean_anomaly_deg": 279.3862,
      "mean_motion_rev_day": 13.12443962
    },
    {
      "epoch": "2026-05-06T08:49:41.797632Z",
      "apogee_km": 1215.0679161638918,
      "perigee_km": 1212.3667343949573,
      "latitude_deg": 1.4608635709889775e-05,
      "longitude_deg": 2.3088578869094722,
      "height_km": 1216.396777512838,
      "semi_major_axis_km": 7591.854325279424,
      "eccentricity": 0.0001779,
      "inclination_deg": 87.8979,
      "raan_deg": 358.9625,
      "arg_perigee_deg": 81.1256,
      "mean_anomaly_deg": 279.0074,
      "mean_motion_rev_day": 13.12444547
    },
    {
      "epoch": "2026-05-07T21:25:19.559136Z",
      "apogee_km": 1215.0568138348317,
      "perigee_km": 1212.3875161524202,
      "latitude_deg": 3.4075631764747194e-05,
      "longitude_deg": 171.59605860672767,
      "height_km": 1216.4119907195823,
      "semi_major_axis_km": 7591.859164993625,
      "eccentricity": 0.0001758,
      "inclination_deg": 87.8978,
      "raan_deg": 358.6599,
      "arg_perigee_deg": 81.468,
      "mean_anomaly_deg": 278.6648,
      "mean_motion_rev_day": 13.12443292
    },
    {
      "epoch": "2026-05-08T21:12:29.151072Z",
      "apogee_km": 1215.06939600461,
      "perigee_km": 1212.3742861160345,
      "latitude_deg": 3.5553294223618976e-05,
      "longitude_deg": 173.63273318176846,
      "height_km": 1216.412325363953,
      "semi_major_axis_km": 7591.858841060322,
      "eccentricity": 0.0001775,
      "inclination_deg": 87.8979,
      "raan_deg": 358.4634,
      "arg_perigee_deg": 81.5799,
      "mean_anomaly_deg": 278.5531,
      "mean_motion_rev_day": 13.12443376
    },
    {
      "epoch": "2026-05-09T15:30:18.152352Z",
      "apogee_km": 1215.0621589924858,
      "perigee_km": 1212.3822326963518,
      "latitude_deg": -4.63912918253942e-05,
      "longitude_deg": -101.72427223250229,
      "height_km": 1216.411560720703,
      "semi_major_axis_km": 7591.8591958444185,
      "eccentricity": 0.0001765,
      "inclination_deg": 87.8977,
      "raan_deg": 358.312,
      "arg_perigee_deg": 81.4822,
      "mean_anomaly_deg": 278.6506,
      "mean_motion_rev_day": 13.12443284
    },
    {
      "epoch": "2026-05-10T15:17:27.835008Z",
      "apogee_km": 1215.0567026294557,
      "perigee_km": 1212.3889230912173,
      "latitude_deg": -5.567107980841099e-05,
      "longitude_deg": -99.68837556466556,
      "height_km": 1216.4130396179144,
      "semi_major_axis_km": 7591.859812860336,
      "eccentricity": 0.0001757,
      "inclination_deg": 87.8977,
      "raan_deg": 358.1151,
      "arg_perigee_deg": 81.4799,
      "mean_anomaly_deg": 278.6528,
      "mean_motion_rev_day": 13.12443124
    },
    {
      "epoch": "2026-05-11T20:33:58.235328Z",
      "apogee_km": 1215.046219945195,
      "perigee_km": 1212.3981794563406,
      "latitude_deg": -1.5847835704074043e-05,
      "longitude_deg": 179.740471328524,
      "height_km": 1216.417291232988,
      "semi_major_axis_km": 7591.859199700768,
      "eccentricity": 0.0001744,
      "inclination_deg": 87.8975,
      "raan_deg": 357.8729,
      "arg_perigee_deg": 81.6281,
      "mean_anomaly_deg": 278.5045,
      "mean_motion_rev_day": 13.12443283
    },
    {
      "epoch": "2026-05-12T20:21:07.887744Z",
      "apogee_km": 1215.063719142583,
      "perigee_km": 1212.3792379845636,
      "latitude_deg": -7.396089016457444e-06,
      "longitude_deg": -178.2235032513452,
      "height_km": 1216.4227940406186,
      "semi_major_axis_km": 7591.858478563573,
      "eccentricity": 0.0001768,
      "inclination_deg": 87.8973,
      "raan_deg": 357.676,
      "arg_perigee_deg": 82.0129,
      "mean_anomaly_deg": 278.12,
      "mean_motion_rev_day": 13.1244347
    }
  ]
}